QIANFAN-65              
1 62795U 25016L   25299.18116424  .00000066  00000+0  83618-4 0  9998
2 62795  88.9726 107.9783 0015451 117.8453 242.4266 13.50973368 40826
QIANFAN-66              
1 62796U 25016M   25299.13597207  .00000067  00000+0  84386-4 0  9990
2 62796  88.9745 107.9439 0016615 114.1371 246.1520 13.50977429 40868
QIANFAN-67              
1 62797U 25016N   25299.14002500  .00000056  00000+0  67389-4 0  9991
2 62797  88.9736 107.9736 0016513 120.3754 239.9032 13.50970149 40837
QIANFAN-68              
1 62798U 25016P   25299.13180353  .00000068  00000+0  87132-4 0  9995
2 62798  88.9739 108.0179 0016582 118.8262 241.4556 13.50972498 40812
QIANFAN-69              
1 62799U 25016Q   25299.14831736  .00000053  00000+0  62598-4 0  9998
2 62799  88.9718 107.8959 0017322 119.8761 240.4114 13.50969894 40850
QIANFAN-70              
1 62800U 25016R   25299.16461696  .00000086  00000+0  11455-3 0  9998
2 62800  88.9739 108.0226 0017031 111.0048 249.2927 13.50972577 40812
QIANFAN-71              
1 62801U 25016S   25299.16059176  .00000062  00000+0  76949-4 0  9999
2 62801  88.9733 108.0055 0017191 123.0392 237.2414 13.50973618 40814
QIANFAN-72              
1 62802U 25016T   25299.17705889  .00000076  00000+0  98243-4 0  9996
2 62802  88.9723 108.0218 0020325 130.2119 230.0815 13.50973372 40807
